{"type": "FeatureCollection", "features": [ {"type": "Feature", "properties": {"norad_id": 30121, "name": "FENGYUN 1C DEB", "group": "fengyun-1c-debris", "lat": -3.453100695970918, "lon": -160.03462873984856, "alt_km": 744.7940640693269, "timestamp": "2025-12-21T14:40:48.190506+00:00", "meta": {"OBJECT_NAME": "FENGYUN 1C DEB", "OBJECT_ID": "1999-025SA", "EPOCH": "2025-12-21T00:44:49.173216", "MEAN_MOTION": 14.40090352, "ECCENTRICITY": 0.00307269, "INCLINATION": 102.1638, "RA_OF_ASC_NODE": 19.8896, "ARG_OF_PERICENTER": 144.1655, "MEAN_ANOMALY": 270.8035, "EPHEMERIS_TYPE": 0, "CLASSIFICATION_TYPE": "U", "NORAD_CAT_ID": 30121, "ELEMENT_SET_NO": 999, "REV_AT_EPOCH": 97659, "BSTAR": 0.0013596417, "MEAN_MOTION_DOT": 4.241e-05, "MEAN_MOTION_DDOT": 0}, "tle": {"line1": "1 30121U 99025SA  25355.03112469  .00004241  00000+0  13596-2 0  9994", "line2": "2 30121 102.1638  19.8896 0030726 144.1655 270.8035 14.40090352976594"}}, "geometry": {"type": "Point", "coordinates": [-160.03462873984856, -3.453100695970918]}}, {"type": "Feature", "properties": {"norad_id": 30123, "name": "FENGYUN 1C DEB", "group": "fengyun-1c-debris", "lat": -47.54102606092896, "lon": 106.59726511499458, "alt_km": 974.9391776647308, "timestamp": "2025-12-21T14:40:48.190516+00:00", "meta": {"OBJECT_NAME": "FENGYUN 1C DEB", "OBJECT_ID": "1999-025SC", "EPOCH": "2025-12-20T19:06:12.964896", "MEAN_MOTION": 14.26044542, "ECCENTRICITY": 0.02307708, "INCLINATION": 96.9275, "RA_OF_ASC_NODE": 293.5864, "ARG_OF_PERICENTER": 60.4287, "MEAN_ANOMALY": 301.9682, "EPHEMERIS_TYPE": 0, "CLASSIFICATION_TYPE": "U", "NORAD_CAT_ID": 30123, "ELEMENT_SET_NO": 999, "REV_AT_EPOCH": 97362, "BSTAR": 0.0011215608, "MEAN_MOTION_DOT": 3.515e-05, "MEAN_MOTION_DDOT": 0}, "tle": {"line1": "1 30123U 99025SC  25354.79598339  .00003515  00000+0  11216-2 0  9992", "line2": "2 30123  96.9275 293.5864 0230770  60.4287 301.9682 14.26044542973620"}}, "geometry": {"type": "Point", "coordinates": [106.59726511499458, -47.54102606092896]}}, {"type": "Feature", "properties": {"norad_id": 30124, "name": "FENGYUN 1C DEB", "group": "fengyun-1c-debris", "lat": 40.79604268125875, "lon": -122.34732302379192, "alt_km": 785.1577366325155, "timestamp": "2025-12-21T14:40:48.190527+00:00", "meta": {"OBJECT_NAME": "FENGYUN 1C DEB", "OBJECT_ID": "1999-025SD", "EPOCH": "2025-12-21T00:47:54.669696", "MEAN_MOTION": 14.14257855, "ECCENTRICITY": 0.01429052, "INCLINATION": 99.1309, "RA_OF_ASC_NODE": 49.0829, "ARG_OF_PERICENTER": 82.525, "MEAN_ANOMALY": 351.402, "EPHEMERIS_TYPE": 0, "CLASSIFICATION_TYPE": "U", "NORAD_CAT_ID": 30124, "ELEMENT_SET_NO": 999, "REV_AT_EPOCH": 97032, "BSTAR": 0.00060426174, "MEAN_MOTION_DOT": 1.227e-05, "MEAN_MOTION_DDOT": 0}, "tle": {"line1": "1 30124U 99025SD  25355.03327164  .00001227  00000+0  60426-3 0  9993", "line2": "2 30124  99.1309  49.0829 0142905  82.5250 351.4020 14.14257855970326"}}, "geometry": {"type": "Point", "coordinates": [-122.34732302379192, 40.79604268125875]}}, {"type": "Feature", "properties": {"norad_id": 30125, "name": "FENGYUN 1C DEB", "group": "fengyun-1c-debris", "lat": -16.62523202641287, "lon": -88.28194236496779, "alt_km": 944.1292788568771, "timestamp": "2025-12-21T14:40:48.190537+00:00", "meta": {"OBJECT_NAME": "FENGYUN 1C DEB", "OBJECT_ID": "1999-025SE", "EPOCH": "2025-12-21T05:23:11.990976", "MEAN_MOTION": 14.22690587, "ECCENTRICITY": 0.0341782, "INCLINATION": 98.7238, "RA_OF_ASC_NODE": 93.9616, "ARG_OF_PERICENTER": 319.5377, "MEAN_ANOMALY": 58.429, "EPHEMERIS_TYPE": 0, "CLASSIFICATION_TYPE": "U", "NORAD_CAT_ID": 30125, "ELEMENT_SET_NO": 999, "REV_AT_EPOCH": 97042, "BSTAR": 0.00047463886, "MEAN_MOTION_DOT": 1.881e-05, "MEAN_MOTION_DDOT": 0}, "tle": {"line1": "1 30125U 99025SE  25355.22444434  .00001881  00000+0  47464-3 0  9998", "line2": "2 30125  98.7238  93.9616 0341782 319.5377  58.4290 14.22690587970428"}}, "geometry": {"type": "Point", "coordinates": [-88.28194236496779, -16.62523202641287]}}, {"type": "Feature", "properties": {"norad_id": 30127, "name": "FENGYUN 1C DEB", "group": "fengyun-1c-debris", "lat": 18.439175720975896, "lon": -151.03219614801486, "alt_km": 713.8889459929069, "timestamp": "2025-12-21T14:40:48.190547+00:00", "meta": {"OBJECT_NAME": "FENGYUN 1C DEB", "OBJECT_ID": "1999-025SG", "EPOCH": "2025-12-21T01:14:09.990528", "MEAN_MOTION": 14.38098782, "ECCENTRICITY": 0.00858699, "INCLINATION": 98.2056, "RA_OF_ASC_NODE": 211.1902, "ARG_OF_PERICENTER": 54.194, "MEAN_ANOMALY": 306.7189, "EPHEMERIS_TYPE": 0, "CLASSIFICATION_TYPE": "U", "NORAD_CAT_ID": 30127, "ELEMENT_SET_NO": 999, "REV_AT_EPOCH": 97355, "BSTAR": 0.0015609942, "MEAN_MOTION_DOT": 4.898e-05, "MEAN_MOTION_DDOT": 0}, "tle": {"line1": "1 30127U 99025SG  25355.05150452  .00004898  00000+0  15610-2 0  9993", "line2": "2 30127  98.2056 211.1902 0085869  54.1940 306.7189 14.38098782973553"}}, "geometry": {"type": "Point", "coordinates": [-151.03219614801486, 18.439175720975896]}}, {"type": "Feature", "properties": {"norad_id": 30128, "name": "FENGYUN 1C DEB", "group": "fengyun-1c-debris", "lat": -74.13093087298255, "lon": 147.2719838322477, "alt_km": 816.4548274075041, "timestamp": "2025-12-21T14:40:48.190557+00:00", "meta": {"OBJECT_NAME": "FENGYUN 1C DEB", "OBJECT_ID": "1999-025SH", "EPOCH": "2025-12-21T05:48:09.981216", "MEAN_MOTION": 14.46241547, "ECCENTRICITY": 0.01075493, "INCLINATION": 96.9797, "RA_OF_ASC_NODE": 352.4943, "ARG_OF_PERICENTER": 98.2035, "MEAN_ANOMALY": 32.383, "EPHEMERIS_TYPE": 0, "CLASSIFICATION_TYPE": "U", "NORAD_CAT_ID": 30128, "ELEMENT_SET_NO": 999, "REV_AT_EPOCH": 97434, "BSTAR": 0.0017978789, "MEAN_MOTION_DOT": 6.887e-05, "MEAN_MOTION_DDOT": 0}, "tle": {"line1": "1 30128U 99025SH  25355.24178219  .00006887  00000+0  17979-2 0  9996", "line2": "2 30128  96.9797 352.4943 0107549  98.2035  32.3830 14.46241547974340"}}, "geometry": {"type": "Point", "coordinates": [147.2719838322477, -74.13093087298255]}}, {"type": "Feature", "properties": {"norad_id": 30129, "name": "FENGYUN 1C DEB", "group": "fengyun-1c-debris", "lat": -49.737955780834746, "lon": 106.81651393771129, "alt_km": 1025.935868797509, "timestamp": "2025-12-21T14:40:48.190567+00:00", "meta": {"OBJECT_NAME": "FENGYUN 1C DEB", "OBJECT_ID": "1999-025SJ", "EPOCH": "2025-12-20T19:01:24.633408", "MEAN_MOTION": 14.01593499, "ECCENTRICITY": 0.01884567, "INCLINATION": 98.0299, "RA_OF_ASC_NODE": 295.6894, "ARG_OF_PERICENTER": 69.6113, "MEAN_ANOMALY": 349.844, "EPHEMERIS_TYPE": 0, "CLASSIFICATION_TYPE": "U", "NORAD_CAT_ID": 30129, "ELEMENT_SET_NO": 999, "REV_AT_EPOCH": 96591, "BSTAR": 0.00048147307, "MEAN_MOTION_DOT": 8.16e-06, "MEAN_MOTION_DDOT": 0}, "tle": {"line1": "1 30129U 99025SJ  25354.79264622  .00000816  00000+0  48147-3 0  9998", "line2": "2 30129  98.0299 295.6894 0188456  69.6113 349.8440 14.01593499965912"}}, "geometry": {"type": "Point", "coordinates": [106.81651393771129, -49.737955780834746]}}, {"type": "Feature", "properties": {"norad_id": 30131, "name": "FENGYUN 1C DEB", "group": "fengyun-1c-debris", "lat": -27.769258432811405, "lon": -97.13838126212184, "alt_km": 810.0626633771453, "timestamp": "2025-12-21T14:40:48.190577+00:00", "meta": {"OBJECT_NAME": "FENGYUN 1C DEB", "OBJECT_ID": "1999-025SL", "EPOCH": "2025-12-21T05:24:04.881600", "MEAN_MOTION": 14.21270616, "ECCENTRICITY": 0.00823299, "INCLINATION": 99.075, "RA_OF_ASC_NODE": 87.2921, "ARG_OF_PERICENTER": 135.0706, "MEAN_ANOMALY": 255.0386, "EPHEMERIS_TYPE": 0, "CLASSIFICATION_TYPE": "U", "NORAD_CAT_ID": 30131, "ELEMENT_SET_NO": 999, "REV_AT_EPOCH": 96809, "BSTAR": 0.0017326343, "MEAN_MOTION_DOT": 3.863e-05, "MEAN_MOTION_DDOT": 0}, "tle": {"line1": "1 30131U 99025SL  25355.22505650  .00003863  00000+0  17326-2 0  9998", "line2": "2 30131  99.0750  87.2921 0082329 135.0706 255.0386 14.21270616968096"}}, "geometry": {"type": "Point", "coordinates": [-97.13838126212184, -27.769258432811405]}}, {"type": "Feature", "properties": {"norad_id": 30132, "name": "FENGYUN 1C DEB", "group": "fengyun-1c-debris", "lat": 74.04143616252388, "lon": -86.66305255220342, "alt_km": 855.7090430226181, "timestamp": "2025-12-21T14:40:48.190605+00:00", "meta": {"OBJECT_NAME": "FENGYUN 1C DEB", "OBJECT_ID": "1999-025SM", "EPOCH": "2025-12-19T09:32:58.134048", "MEAN_MOTION": 13.94857644, "ECCENTRICITY": 0.0105674, "INCLINATION": 99.5782, "RA_OF_ASC_NODE": 307.2303, "ARG_OF_PERICENTER": 31.9911, "MEAN_ANOMALY": 93.7784, "EPHEMERIS_TYPE": 0, "CLASSIFICATION_TYPE": "U", "NORAD_CAT_ID": 30132, "ELEMENT_SET_NO": 999, "REV_AT_EPOCH": 96182, "BSTAR": 0.00045645, "MEAN_MOTION_DOT": 5.94e-06, "MEAN_MOTION_DDOT": 0}, "tle": {"line1": "1 30132U 99025SM  25353.39789507  .00000594  00000+0  45645-3 0  9994", "line2": "2 30132  99.5782 307.2303 0105674  31.9911  93.7784 13.94857644961821"}}, "geometry": {"type": "Point", "coordinates": [-86.66305255220342, 74.04143616252388]}}, {"type": "Feature", "properties": {"norad_id": 30133, "name": "FENGYUN 1C DEB", "group": "fengyun-1c-debris", "lat": -21.192275404173227, "lon": 164.85477142121698, "alt_km": 889.8187909388644, "timestamp": "2025-12-21T14:40:48.190655+00:00", "meta": {"OBJECT_NAME": "FENGYUN 1C DEB", "OBJECT_ID": "1999-025SN", "EPOCH": "2025-12-20T16:53:08.155104", "MEAN_MOTION": 14.06704998, "ECCENTRICITY": 0.00859108, "INCLINATION": 98.3238, "RA_OF_ASC_NODE": 160.7649, "ARG_OF_PERICENTER": 237.8532, "MEAN_ANOMALY": 183.6983, "EPHEMERIS_TYPE": 0, "CLASSIFICATION_TYPE": "U", "NORAD_CAT_ID": 30133, "ELEMENT_SET_NO": 999, "REV_AT_EPOCH": 96490, "BSTAR": 0.0011119792, "MEAN_MOTION_DOT": 1.87e-05, "MEAN_MOTION_DDOT": 0}, "tle": {"line1": "1 30133U 99025SN  25354.70356661  .00001870  00000+0  11120-2 0  9990", "line2": "2 30133  98.3238 160.7649 0085910 237.8532 183.6983 14.06704998964905"}}, "geometry": {"type": "Point", "coordinates": [164.85477142121698, -21.192275404173227]}}]}